BEIDOU 3 (C01)          
1 36287U 10001A   22265.89612787 -.00000283  00000+0  00000+0 0  9995
2 36287   1.6799  47.2263 0000422 325.0660  92.5360  1.00271157 46496
BEIDOU 5 (C06)          
1 36828U 10036A   22265.65879022 -.00000158  00000+0  00000+0 0  9996
2 36828  54.1989 175.3409 0030254 187.8573 343.4544  1.00270612 44551
BEIDOU 6 (C04)          
1 37210U 10057A   22265.90005189 -.00000116  00000+0  00000+0 0  9992
2 37210   0.7342  37.8953 0007126 150.2726 297.5869  1.00270577 43614
BEIDOU 7 (C07)          
1 37256U 10068A   22265.68926847 -.00000155  00000+0  00000+0 0  9995
2 37256  50.0392 288.4820 0024047 204.4656 224.9018  1.00276345 43124
BEIDOU 8 (C08)          
1 37384U 11013A   22265.83938537 -.00000150  00000+0  00000+0 0  9999
2 37384  60.4350  53.2964 0024170 177.8063 180.9776  1.00281665 41990
BEIDOU 9 (C09)          
1 37763U 11038A   22265.71172654 -.00000108  00000+0  00000+0 0  9997
2 37763  54.4804 177.8429 0098874 227.8719 306.3297  1.00260879 40976
BEIDOU 10 (C10)         
1 37948U 11073A   22265.52867377 -.00000108  00000+0  00000+0 0  9993
2 37948  50.1567 288.1283 0086871 219.6594 139.9808  1.00272117 39736
BEIDOU 11 (C05)         
1 38091U 12008A   22265.91854709  .00000053  00000+0  00000+0 0  9998
2 38091   1.7778  69.5397 0011076 342.1581 339.5288  1.00276323 38802
BEIDOU 12 (C11)         
1 38250U 12018A   22265.42400620 -.00000093  00000+0  00000+0 0  9996
2 38250  56.6644 350.3584 0023058 249.9802 175.1839  1.86234338 70897
BEIDOU 13 (C12)         
1 38251U 12018B   22265.34367172 -.00000093  00000+0  00000+0 0  9992
2 38251  56.5806 349.6784 0014088 249.4690 165.9878  1.86234065 70890
BEIDOU 15 (C14)         
1 38775U 12050B   22265.23712328  .00000043  00000+0  00000+0 0  9998
2 38775  55.4558 108.4278 0012016 333.5009 206.4265  1.86231354 68267
BEIDOU 16 (C02)         
1 38953U 12059A   22265.87917716 -.00000180  00000+0  00000+0 0  9996
2 38953   1.1602  81.3177 0023867 295.3479  25.7338  1.00271855 36233
BEIDOU 17 (C31)         
1 40549U 15019A   22265.60013703 -.00000141  00000+0  00000+0 0  9990
2 40549  51.7177 311.6290 0038743 197.9622 163.7721  1.00276296 27419
BEIDOU 18 (C57)         
1 40748U 15037A   22265.39301792 -.00000092  00000+0  00000+0 0  9990
2 40748  55.8296 348.4853 0001096  32.5635 325.3018  1.86233719 48717
BEIDOU 19 (C58)         
1 40749U 15037B   22264.71655983 -.00000096  00000+0  00000+0 0  9994
2 40749  55.8333 348.4978 0003067 299.2709  99.2518  1.86232979 48700
BEIDOU 20 (C18)         
1 40938U 15053A   22265.64392341 -.00000090  00000+0  00000+0 0  9995
2 40938  51.3525 274.7529 0046249 199.9463 215.1047  1.00271087 25686
BEIDOU IGSO-6 (C13)     
1 41434U 16021A   22265.88582462 -.00000121  00000+0  00000+0 0  9999
2 41434  58.2444  51.8271 0045350 215.0007 148.6493  1.00264041 23818
BEIDOU-2 G7 (C03)       
1 41586U 16037A   22265.90264149 -.00000357  00000+0  00000+0 0  9997
2 41586   1.5863  67.9657 0007666 353.5397  15.7575  1.00271278 23125
BEIDOU-3 M1 (C19)       
1 43001U 17069A   22264.50525541  .00000036  00000+0  00000+0 0  9991
2 43001  55.6087 108.4654 0007939 296.9236 268.6792  1.86231717 33185
BEIDOU-3 M2 (C20)       
1 43002U 17069B   22265.38494869  .00000045  00000+0  00000+0 0  9997
2 43002  55.6084 108.4715 0006502 326.7005 151.5773  1.86231287 33194
BEIDOU-3 M3 (C27)       
1 43107U 18003A   22265.48965229 -.00000093  00000+0  00000+0 0  9990
2 43107  55.2812 349.3557 0003902  72.0467 282.7028  1.86232491 31959
BEIDOU-3 M4 (C28)       
1 43108U 18003B   22264.88646992 -.00000097  00000+0  00000+0 0  9991
2 43108  55.2757 349.3654 0003530 235.2960 118.3938  1.86230917 31948
BEIDOU-3 M5 (C21)       
1 43207U 18018A   22264.80347876  .00000039  00000+0  00000+0 0  9993
2 43207  55.5679 108.5660 0004721   5.2484 354.8476  1.86231660 31338
BEIDOU-3 M6 (C22)       
1 43208U 18018B   22264.87015697  .00000040  00000+0  00000+0 0  9996
2 43208  55.5668 108.5689 0006166 313.1386  46.9024  1.86231587 31331
BEIDOU-3 M7 (C29)       
1 43245U 18029A   22265.66556769 -.00000090  00000+0  00000+0 0  9993
2 43245  55.1917 347.1114 0001087 195.8442 187.3517  1.86232704 30501
BEIDOU-3 M8 (C30)       
1 43246U 18029B   22265.48503424 -.00000091  00000+0  10000-3 0  9990
2 43246  55.1881 347.1471 0002840 354.3411 314.4313  1.86233097 30484
BEIDOU IGSO-7 (C16)     
1 43539U 18057A   22264.84196326 -.00000167  00000+0  00000+0 0  9993
2 43539  55.0901 174.8786 0052452 228.1730  15.0081  1.00281272 15473
BEIDOU-3 M9 (C23)       
1 43581U 18062A   22265.25111505  .00000006  00000+0  00000+0 0  9999
2 43581  54.2534 228.7709 0005925 276.3963  86.8133  1.86231903 28235
BEIDOU-3 M10 (C24)      
1 43582U 18062B   22265.38376890  .00000005  00000+0  00000+0 0  9993
2 43582  54.2523 228.7555 0005254 340.5759 203.4690  1.86232359 28236
BEIDOU-3 M11 (C25)      
1 43602U 18067A   22265.32410663  .00000004  00000+0  00000+0 0  9991
2 43602  54.3362 227.3815 0006940   1.7689 183.4618  1.86231524 27729
BEIDOU-3 M12 (C26)      
1 43603U 18067B   22265.45731156  .00000004  00000+0  00000+0 0  9999
2 43603  54.3330 227.3434 0004275 344.5587 200.3377  1.86231487 27747
BEIDOU-3 M13 (C32)      
1 43622U 18072A   22264.87827159  .00000040  00000+0  00000+0 0  9990
2 43622  55.5342 108.1150 0004696 292.4133 253.3017  1.86231785 27245
BEIDOU-3 M14 (C33)      
1 43623U 18072B   22265.28051387  .00000044  00000+0  00000+0 0  9993
2 43623  55.5373 108.0937 0003227 336.6183 209.0218  1.86231794 27259
BEIDOU-3 M15 (C34)      
1 43647U 18078A   22264.61902824 -.00000096  00000+0  10000-3 0  9995
2 43647  55.0871 347.2971 0005068   2.5243 355.2745  1.86233124 26740
BEIDOU-3 M16 (C35)      
1 43648U 18078B   22265.39124119 -.00000092  00000+0  00000+0 0  9996
2 43648  55.0830 347.2774 0003104  23.3594  39.7712  1.86232254 26781
BEIDOU-3 G1 (C59)       
1 43683U 18085A   22265.79285493 -.00000282  00000+0  00000+0 0  9991
2 43683   0.9993 151.2186 0004320  46.7378 229.2001  1.00271906 14382
BEIDOU-3 M17 (C36)      
1 43706U 18093A   22265.44764163  .00000005  00000+0  00000+0 0  9996
2 43706  54.3355 228.6569 0010695 278.0191  81.8295  1.86232049 26145
BEIDOU-3 M18 (C37)      
1 43707U 18093B   22264.52322856  .00000009  00000+0  00000+0 0  9998
2 43707  54.3362 228.6787 0009369 298.4128 252.9605  1.86232223 26115
BEIDOU-3 IGSO-1 (C38)   
1 44204U 19023A   22265.96048700 -.00000184  00000+0  00000+0 0  9992
2 44204  56.7053  51.9257 0023568 188.6584 226.6466  1.00280270 12695
BEIDOU-2 G8             
1 44231U 19027A   22265.89699987 -.00000250  00000+0  00000+0 0  9991
2 44231   1.0909  79.1141 0006151 117.5577 272.5191  1.00274620 12400
BEIDOU-3 IGSO-2 (C39)   
1 44337U 19035A   22265.68882299 -.00000163  00000+0  00000+0 0  9997
2 44337  55.1281 170.8595 0025724 192.3850   6.0572  1.00274783 12025
BEIDOU-3 M23 (C45)      
1 44542U 19061A   22265.38389543  .00000006  00000+0  00000+0 0  9990
2 44542  54.5618 228.8202 0008871 332.0490  27.8736  1.86231553 20390
BEIDOU-3 M24 (C46)      
1 44543U 19061B   22265.51864573  .00000006  00000+0  00000+0 0  9997
2 44543  54.5598 228.7851 0006463 312.8613  48.8386  1.86231823 20399
BEIDOU-3 IGSO-3         
1 44709U 19073A   22265.67498792 -.00000130  00000+0  10000-3 0  9991
2 44709  57.1066 295.3743 0027569 182.2735 246.9223  1.00279413 10771
BEIDOU-3 M21            
1 44793U 19078A   22264.76793455 -.00000096  00000+0  10000-3 0  9993
2 44793  54.9354 347.3021 0005086  15.6461  35.7284  1.86232284 19242
BEIDOU-3 M22            
1 44794U 19078B   22264.78058468 -.00000096  00000+0  00000+0 0  9999
2 44794  54.9097 347.2921 0002880   6.6882 324.9979  1.86232768 19231
BEIDOU-3 M19            
1 44864U 19090A   22265.60188328  .00000047  00000+0  00000+0 0  9997
2 44864  55.4696 108.2964 0015120 270.7693  85.9547  1.86231944 18832
BEIDOU-3 M20            
1 44865U 19090B   22265.46353289  .00000046  00000+0  00000+0 0  9991
2 44865  55.4719 108.3332 0013300 286.6514  67.1653  1.86231889 18800
BEIDOU-3 G2             
1 45344U 20017A   22265.88409421 -.00000145  00000+0  00000+0 0  9992
2 45344   2.0177 356.9746 0003950 157.5501 245.5362  1.00272123  9598
BEIDOU-3 G3             
1 45807U 20040A   22265.79001775 -.00000359  00000+0  00000+0 0  9999
2 45807   1.2298 306.4320 0007995 331.9045 118.1653  1.00266572  8407
